     3.00           N                   E                   RINEX VERSION / TYPE
BRD_USR             ESA                 20190104 162051  UTCPGM / RUN BY / DATE
 GAL   4.4750E+01 -1.5625E-02 -2.1362E-03  0.0000E+00       IONOSPHERIC CORR
GAUT -9.3132257462E-10 0.000000000E+00 432000 2034 GSTB   0 TIME SYSTEM CORR
GPGA -3.2014213502E-09-1.332267630E-15 518400 2034 GSTB   0 TIME SYSTEM CORR
                                                            END OF HEADER
E03 2019 01 04 14 30 00-1.184224383906E-04-4.291678123991E-12 0.000000000000E+00
     3.900000000000E+01 1.596875000000E+01 3.837302696203E-09-7.134808458325E-01
     7.655471563339E-07 2.830461598933E-04 4.170462489128E-06 5.440603454590E+03
     4.842000000000E+05-3.725290298462E-09 1.365698923505E+00-1.490116119385E-08
     9.521496091959E-01 2.480625000000E+02 6.492975650727E-01-5.767025934064E-09
     2.025084352892E-10 2.580000000000E+02 2.034000000000E+03 0.000000000000E+00
     3.120000000000E+00 0.000000000000E+00-1.862645149231E-09 0.000000000000E+00
     4.849000000000E+05 0.000000000000E+00 0.000000000000E+00 0.000000000000E+00
E04 2019 01 04 14 30 00-1.931115984917E-04-7.887024366937E-12 0.000000000000E+00
     3.900000000000E+01 9.000000000000E+00 3.899448141953E-09 4.488019783353E-01
     4.619359970093E-07 8.647865615785E-05 3.986060619354E-06 5.440601270676E+03
     4.842000000000E+05-1.490116119385E-08 1.365750650825E+00 1.303851604462E-08
     9.521931149167E-01 2.509375000000E+02 1.847684319445E+00-5.780240770229E-09
     1.446488823494E-10 2.580000000000E+02 2.034000000000E+03 0.000000000000E+00
     3.120000000000E+00 0.000000000000E+00-7.916241884232E-09 0.000000000000E+00
     4.849000000000E+05 0.000000000000E+00 0.000000000000E+00 0.000000000000E+00
E05 2019 01 04 14 30 00 1.308239880018E-04-6.579625733139E-12 0.000000000000E+00
     3.900000000000E+01 1.034375000000E+01 3.844088693152E-09-7.933355414268E-01
     5.215406417847E-07 1.533452887088E-04 4.090368747711E-06 5.440601291656E+03
     4.842000000000E+05 5.587935447693E-09 1.365683270281E+00-2.607703208923E-08
     9.521632362778E-01 2.476562500000E+02 1.516613786629E+00-5.777383508356E-09
     1.517920370333E-10 2.580000000000E+02 2.034000000000E+03 0.000000000000E+00
     3.120000000000E+00 0.000000000000E+00-1.629814505577E-09 0.000000000000E+00
     4.849000000000E+05 0.000000000000E+00 0.000000000000E+00 0.000000000000E+00
E07 2019 01 04 14 30 00-1.063313684426E-04-7.162270776462E-12 0.000000000000E+00
     3.900000000000E+01 1.200000000000E+01 3.919091817334E-09-1.753740787943E+00
     6.277114152908E-07 1.486744731665E-04 3.909692168236E-06 5.440605619431E+03
     4.842000000000E+05 6.705522537231E-08 1.365701349023E+00 5.960464477539E-08
     9.521920338202E-01 2.536875000000E+02 1.191335427788E-01-5.909531870008E-09
     1.975082270104E-10 2.580000000000E+02 2.034000000000E+03 0.000000000000E+00
     3.120000000000E+00 0.000000000000E+00 2.328306436539E-10 0.000000000000E+00
     4.849000000000E+05 0.000000000000E+00 0.000000000000E+00 0.000000000000E+00
E08 2019 01 04 14 30 00 6.430024630390E-03-7.460698725481E-12 0.000000000000E+00
     3.900000000000E+01 1.600000000000E+01 3.788372086618E-09-1.363384105803E+00
     7.897615432739E-07 2.348819980398E-04 3.943219780922E-06 5.440605003357E+03
     4.842000000000E+05-5.215406417847E-08 1.357050276168E+00 1.490116119385E-08
     9.581336448779E-01 2.560937500000E+02 5.154358926481E-01-5.775954877419E-09
     2.557249376844E-10 2.580000000000E+02 2.034000000000E+03 0.000000000000E+00
     3.120000000000E+00 0.000000000000E+00-8.381903171539E-09 0.000000000000E+00
     4.849000000000E+05 0.000000000000E+00 0.000000000000E+00 0.000000000000E+00
E09 2019 01 04 14 30 00 6.568232551217E-03-1.131184035330E-11 0.000000000000E+00
     3.900000000000E+01 9.156250000000E+00 3.786229140213E-09 1.348543849339E+00
     5.476176738739E-07 2.568427007645E-04 4.136934876442E-06 5.440602039337E+03
     4.842000000000E+05 2.607703208923E-08 1.357048350968E+00 2.421438694000E-08
     9.581647143320E-01 2.503750000000E+02 1.584518156056E-01-5.737738999860E-09
     1.578637185147E-10 2.580000000000E+02 2.034000000000E+03 0.000000000000E+00
     3.120000000000E+00 0.000000000000E+00-3.259629011154E-09 0.000000000000E+00
     4.849000000000E+05 0.000000000000E+00 0.000000000000E+00 0.000000000000E+00
E19 2019 01 04 14 30 00-9.376322850585E-06 2.557953848736E-13 0.000000000000E+00
     3.900000000000E+01 1.028125000000E+01 3.765513991629E-09 9.535206852782E-01
     4.619359970093E-07 1.412793062627E-04 3.997236490250E-06 5.440601009369E+03
     4.842000000000E+05-4.656612873077E-08 1.362406935043E+00 0.000000000000E+00
     9.579213140220E-01 2.535625000000E+02 2.203620701373E+00-5.745596470012E-09
     1.103617398666E-10 2.580000000000E+02 2.034000000000E+03 0.000000000000E+00
     3.120000000000E+00 0.000000000000E+00-8.847564458847E-09 0.000000000000E+00
     4.849000000000E+05 0.000000000000E+00 0.000000000000E+00 0.000000000000E+00
E24 2019 01 04 14 30 00 6.303335132543E-03-1.978150976356E-11 0.000000000000E+00
     3.900000000000E+01 2.080000000000E+02 2.380813456151E-09-1.030450188398E+00
     9.499490261078E-06 4.615338984877E-04 9.460374712944E-06 5.440624708176E+03
     4.842000000000E+05 1.676380634308E-07-2.821743268590E+00-1.005828380585E-07
     9.879192406761E-01 1.502812500000E+02 4.442025712086E-01-5.172001148893E-09
     5.714523747137E-11 2.580000000000E+02 2.034000000000E+03 0.000000000000E+00
     3.120000000000E+00 0.000000000000E+00 4.284083843231E-08 0.000000000000E+00
     4.849000000000E+05 0.000000000000E+00 0.000000000000E+00 0.000000000000E+00
E26 2019 01 04 14 30 00 5.057936650701E-03-4.334310688137E-11 0.000000000000E+00
     3.900000000000E+01-1.926562500000E+02 2.663682381634E-09 1.805906481951E+00
    -8.914619684219E-06 3.229847643524E-04 5.984678864479E-06 5.440613317490E+03
     4.842000000000E+05-1.676380634308E-08-7.358632159538E-01-3.725290298462E-09
     9.783703735331E-01 2.186250000000E+02-2.120292287782E+00-5.486299954986E-09
    -1.975082270104E-10 2.580000000000E+02 2.034000000000E+03 0.000000000000E+00
     3.120000000000E+00 0.000000000000E+00 1.396983861923E-09 0.000000000000E+00
     4.849000000000E+05 0.000000000000E+00 0.000000000000E+00 0.000000000000E+00
E30 2019 01 04 14 30 00 5.215372424573E-03-3.048228336411E-11 0.000000000000E+00
     3.900000000000E+01 1.745312500000E+02 2.480103306258E-09 2.851292933738E+00
     8.152797818184E-06 2.981410361826E-04 9.896233677864E-06 5.440622375488E+03
     4.842000000000E+05 3.166496753693E-08-2.821799181319E+00 0.000000000000E+00
     9.879027872364E-01 1.407500000000E+02 4.919254693218E-01-5.250933008151E-09
     5.964534161075E-11 2.580000000000E+02 2.034000000000E+03 0.000000000000E+00
     3.120000000000E+00 0.000000000000E+00-3.026798367500E-09 0.000000000000E+00
     4.849000000000E+05 0.000000000000E+00 0.000000000000E+00 0.000000000000E+00
E31 2019 01 04 14 30 00 9.411893552169E-04-9.762857189344E-12 0.000000000000E+00
     3.900000000000E+01 2.078437500000E+02 2.377956194278E-09 1.759145118930E+00
     9.581446647644E-06 2.574415411800E-04 8.711591362953E-06 5.440638181686E+03
     4.842000000000E+05 6.332993507385E-08-2.827856161023E+00 2.607703208923E-08
     9.898915907181E-01 1.656562500000E+02-1.537373382687E+00-5.240575433859E-09
     7.321733551020E-11 2.580000000000E+02 2.034000000000E+03 0.000000000000E+00
     3.120000000000E+00 0.000000000000E+00 0.000000000000E+00 0.000000000000E+00
     4.849000000000E+05 0.000000000000E+00 0.000000000000E+00 0.000000000000E+00
E33 2019 01 04 14 30 00 8.478661184199E-04 1.421085471520E-14 0.000000000000E+00
     3.900000000000E+01-1.867187500000E+02 2.637252709304E-09 4.182504044825E-01
    -8.713454008102E-06 3.517789300531E-04 6.247311830521E-06 5.440599607468E+03
     4.842000000000E+05-1.676380634308E-08-7.448425237380E-01 1.676380634308E-08
     9.852492513346E-01 2.132812500000E+02-1.524599122039E+00-5.466299121871E-09
    -2.092944322389E-10 2.580000000000E+02 2.034000000000E+03 0.000000000000E+00
     3.120000000000E+00 5.600000000000E+01-7.916241884232E-09 0.000000000000E+00
     4.849000000000E+05 0.000000000000E+00 0.000000000000E+00 0.000000000000E+00
E36 2019 01 04 14 30 00 7.636001682840E-04-4.533262654149E-12 0.000000000000E+00
     3.900000000000E+01-2.150312500000E+02 2.579393156364E-09-1.808069938833E+00
    -9.879469871521E-06 3.225274849683E-04 5.505979061127E-06 5.440605064392E+03
     4.842000000000E+05 3.352761268616E-08-7.448156309149E-01 2.607703208923E-08
     9.852578723108E-01 2.335000000000E+02-1.652714354232E+00-5.495943213809E-09
    -2.196520065306E-10 2.580000000000E+02 2.034000000000E+03 0.000000000000E+00
     3.120000000000E+00 5.600000000000E+01 9.313225746155E-10 0.000000000000E+00
     4.849000000000E+05 0.000000000000E+00 0.000000000000E+00 0.000000000000E+00
E03 2019 01 04 14 30 00-1.184224383906E-04-4.305888978706E-12 0.000000000000E+00
     3.900000000000E+01 1.596875000000E+01 3.837302696203E-09-7.134808458325E-01
     7.655471563339E-07 2.830461598933E-04 4.170462489128E-06 5.440603454590E+03
     4.842000000000E+05-3.725290298462E-09 1.365698923505E+00-1.490116119385E-08
     9.521496091959E-01 2.480625000000E+02 6.492975650727E-01-5.767025934064E-09
     2.025084352892E-10 5.210000000000E+02 2.034000000000E+03 0.000000000000E+00
     3.120000000000E+00 0.000000000000E+00-1.862645149231E-09-2.095475792885E-09
     4.849750000000E+05 0.000000000000E+00 0.000000000000E+00 0.000000000000E+00
